[{"OBJECT_NAME":"STARLINK-2326","OBJECT_ID":"2021-021L","EPOCH":"2026-03-09T21:06:56.863584","MEAN_MOTION":15.30185263,"ECCENTRICITY":9.358e-5,"INCLINATION":53.1577,"RA_OF_ASC_NODE":280.0985,"ARG_OF_PERICENTER":92.4868,"MEAN_ANOMALY":267.624,"EPHEMERIS_TYPE":0,"CLASSIFICATION_TYPE":"U","NORAD_CAT_ID":47870,"ELEMENT_SET_NO":999,"REV_AT_EPOCH":27599,"BSTAR":-0.00017423369,"MEAN_MOTION_DOT":-5.513e-5,"MEAN_MOTION_DDOT":0},{"OBJECT_NAME":"SL-3 R\/B","OBJECT_ID":"1982-027B","EPOCH":"2026-03-09T22:44:40.208640","MEAN_MOTION":15.28335844,"ECCENTRICITY":0.00065199,"INCLINATION":81.188,"RA_OF_ASC_NODE":37.4466,"ARG_OF_PERICENTER":276.581,"MEAN_ANOMALY":83.4683,"EPHEMERIS_TYPE":0,"CLASSIFICATION_TYPE":"U","NORAD_CAT_ID":13121,"ELEMENT_SET_NO":999,"REV_AT_EPOCH":39859,"BSTAR":0.00030526741,"MEAN_MOTION_DOT":8.453e-5,"MEAN_MOTION_DDOT":0}]
